OSCAR 7 (AO-7)          
1 07530U 74089B   19215.91128399 -.00000043  00000-0  15419-4 0  9995
2 07530 101.7471 183.1049 0011703 258.2696 165.2679 12.53639074 46077
UOSAT 2 (UO-11)         
1 14781U 84021B   19215.84834992  .00000043  00000-0  11400-4 0  9998
2 14781  97.6089 238.3785 0008990 158.7037 201.4554 14.83098296884602
LUSAT (LO-19)           
1 20442U 90005G   19215.89464050 -.00000016  00000-0  10449-4 0  9990
2 20442  98.6501 157.8226 0012179  18.7577 341.4053 14.32929687542933
ITAMSAT (IO-26)         
1 22826U 93061D   19215.87867666 -.00000015  00000-0  12302-4 0  9990
2 22826  98.8995 205.5606 0008329 207.0762 152.9986 14.30397259348750
RADIO ROSTO (RS-15)     
1 23439U 94085A   19215.90120148 -.00000038  00000-0  13369-3 0  9997
2 23439  64.8178  41.3970 0146138 104.2381 257.4823 11.27568731 13100
JAS-2 (FO-29)           
1 24278U 96046B   19215.91392104 -.00000044  00000-0 -11439-4 0  9997
2 24278  98.5438   3.0635 0351290 120.0963 243.5494 13.53093063133809
TECHSAT 1B (GO-32)      
1 25397U 98043D   19215.86432225 -.00000019  00000-0  11048-4 0  9999
2 25397  98.6900 155.4536 0000150 239.1978 120.9186 14.23668395 94225
ISS (ZARYA)             
1 25544U 98067A   19216.25866259 -.00000624  00000-0 -26973-5 0  9998
2 25544  51.6446 122.7696 0006302 214.2136 288.3345 15.51020387182715
PCSAT (NO-44)           
1 26931U 01043C   19215.71396304 -.00000037  00000-0  17648-4 0  9991
2 26931  67.0495 244.9208 0007373 275.4118  84.6142 14.30548450931485
SAUDISAT 1C (SO-50)     
1 27607U 02058C   19215.49785650 -.00000040  00000-0  15354-4 0  9996
2 27607  64.5544 269.5504 0079649 247.7147 111.5496 14.75562239893663
CUTE-1 (CO-55)          
1 27844U 03031E   19215.94595532  .00000015  00000-0  26507-4 0  9992
2 27844  98.6838 223.4673 0008610 255.8396 104.1825 14.22187809834827
CUBESAT XI-IV (CO-57)   
1 27848U 03031J   19215.88089485  .00000007  00000-0  23187-4 0  9996
2 27848  98.6915 223.9133 0008491 269.2038  90.8166 14.21781918834674
MOZHAYETS 4 (RS-22)     
1 27939U 03042A   19215.88987859  .00000052  00000-0  17955-4 0  9997
2 27939  98.0475 350.8197 0011724 282.7228  77.2672 14.66793377847311
CUBESAT XI-V            
1 28895U 05043F   19215.85793007  .00000070  00000-0  22359-4 0  9993
2 28895  97.9654 357.0224 0016330 201.3994 158.6528 14.63679188734000
CUTE-1.7+APD II (CO-65) 
1 32785U 08021C   19215.80636535  .00000127  00000-0  19294-4 0  9999
2 32785  97.5506 213.3483 0014613 107.8851 252.3961 14.88326470610477
DELFI-C3 (DO-64)        
1 32789U 08021G   19215.89835041  .00000717  00000-0  51828-4 0  9999
2 32789  97.4610 264.1625 0011280 334.5105  25.5565 15.07026044613824
SEEDS II (CO-66)        
1 32791U 08021J   19215.54581588  .00000225  00000-0  28128-4 0  9999
2 32791  97.5283 219.1193 0015052  85.9094 274.3845 14.90843443610866
YUBILEINY (RS-30)       
1 32953U 08025A   19216.08380138  .00000020  00000-0  75656-4 0  9992
2 32953  82.5034 115.9200 0020211  29.6245 330.5973 12.43090700508074
KKS-1 (KISEKI)          
1 33499U 09002H   19216.19703921  .00000046  00000-0  14765-4 0  9997
2 33499  98.3480  56.3814 0010366  62.3627 297.8632 14.75452198566089
SWISSCUBE               
1 35932U 09051B   19215.90595109  .00000075  00000-0  28102-4 0  9992
2 35932  98.5923  23.2415 0008170  32.3893 327.7804 14.56296958523467
BEESAT-1                
1 35933U 09051C   19215.90612027  .00000062  00000-0  25061-4 0  9999
2 35933  98.5947  25.0207 0006640  46.2819 313.8927 14.56384646523537
ITUPSAT1                
1 35935U 09051E   19215.92171988  .00000026  00000-0  17245-4 0  9994
2 35935  98.6057  25.2714 0008865  41.4109 318.7758 14.55542814523333
XIWANG-1 (HOPE-1)       
1 36122U 09072B   19216.17457692 -.00000004  00000-0  10129-3 0  9993
2 36122 100.0734 216.3699 0006787 239.6867 120.3588 13.16350929462992
JUGNU                   
1 37839U 11058B   19215.94773557  .00000291  00000-0  13300-4 0  9993
2 37839  19.9625  54.2734 0018887 116.9638  30.9861 14.12654815403691
SRMSAT                  
1 37841U 11058D   19215.90895894  .00000276  00000-0  66206-5 0  9998
2 37841  19.9723 112.2386 0011768 344.7516  97.8733 14.10635683403137
M-CUBED & EXP-1 PRIME   
1 37855U 11061F   19215.72325777  .00000910  00000-0  53548-4 0  9994
2 37855 101.7105 134.9473 0173194 300.4214  57.9981 15.05512539423706
STRAND-1                
1 39090U 13009E   19215.87249946 -.00000011  00000-0  11206-4 0  9998
2 39090  98.4850  61.0476 0009746 145.3189 214.8634 14.35091632336990
SOMP                    
1 39134U 13015E   19216.19945831  .00000539  00000-0  33991-4 0  9995
2 39134  64.8614 229.7542 0033809 295.8648  63.8995 15.20224462347661
BEESAT-3                
1 39135U 13015F   19215.87467212  .00000345  00000-0  26989-4 0  9996
2 39135  64.8684 249.7567 0027641 311.6204  48.2554 15.17523776346865
BEESAT-2                
1 39136U 13015G   19215.59947835  .00000160  00000-0  18080-4 0  9998
2 39136  64.8684 254.6016 0021456 300.8154  59.0860 15.16946546347136
ZACUBE-1 (TSHEPISOSAT)  
1 39417U 13066B   19215.91447858  .00000104  00000-0  19532-4 0  9993
2 39417  97.5620 226.8183 0057517 241.7485 117.7915 14.81130608307880
GOMX-1                  
1 39430U 13066Q   19216.18147463  .00000109  00000-0  28315-4 0  9991
2 39430  97.7498 169.6806 0152406 107.4354 254.3581 14.59265891303388
CUBEBUG-2 (LO-74)       
1 39440U 13066AA  19215.98947545  .00000109  00000-0  22333-4 0  9992
2 39440  97.6035 211.6962 0078793 295.1108  64.1941 14.75868834306805
FUNCUBE-1 (AO-73)       
1 39444U 13066AE  19215.75446635  .00000161  00000-0  26207-4 0  9997
2 39444  97.5599 228.6577 0056716 235.7862 123.7970 14.81952308306756
UWE-3                   
1 39446U 13066AG  19215.71129100  .00000115  00000-0  22128-4 0  9997
2 39446  97.5817 218.5077 0068414 269.9557  89.3815 14.78403310305475
SPROUT                  
1 39770U 14029E   19215.84915389  .00000174  00000-0  25406-4 0  9990
2 39770  97.8865 318.8474 0007945 299.7201  60.3241 14.87374394281693
UNISAT-6                
1 40012U 14033C   19215.70134235  .00000103  00000-0  22908-4 0  9990
2 40012  97.7520  80.3175 0057260 310.5337  49.0893 14.73990900275464
DUCHIFAT-1              
1 40021U 14033M   19215.72709096  .00000271  00000-0  33533-4 0  9997
2 40021  97.9230 140.4734 0011367 257.9886 102.0058 14.90651846278406
QB50P1                  
1 40025U 14033R   19215.73398971  .00000181  00000-0  25297-4 0  9996
2 40025  97.9042 135.3430 0010988 268.5888  91.4070 14.88960222277665
NUDT-PHONESAT           
1 40900U 15049B   19215.77022266  .00001201  00000-0  54164-4 0  9990
2 40900  97.4367 224.6517 0013656  30.2869  56.3156 15.22892055214672
ZDPS 2A                 
1 40901U 15049C   19215.82554936  .00000420  00000-0  24119-4 0  9990
2 40901  97.4592 220.9816 0014795  46.7157  35.2986 15.17767353214236
ZDPS 2B                 
1 40902U 15049D   19215.85662762  .00000777  00000-0  41922-4 0  9997
2 40902  97.4540 218.4790 0014868  44.3155  39.7531 15.17599645214216
XW-2A                   
1 40903U 15049E   19216.17923573  .00001169  00000-0  29434-4 0  9994
2 40903  97.3344 259.2003 0013053 344.2469 100.6936 15.41957408217417
KAITUO 1A               
1 40904U 15049F   19216.22662792  .00000177  00000-0  12854-4 0  9990
2 40904  97.4671 217.4386 0016004  50.8837  77.7420 15.15385740214043
2015-049G               
1 40905U 15049G   19215.86919655  .00000373  00000-0  23865-4 0  9995
2 40905  97.4712 214.5924 0016891  46.7221  37.4197 15.14312717213867
XW-2C                   
1 40906U 15049H   19215.94080567  .00000379  00000-0  23352-4 0  9993
2 40906  97.4682 217.2528 0016057  42.8354  14.0250 15.15704796214003
XW-2D                   
1 40907U 15049J   19215.90990510  .00000464  00000-0  27652-4 0  9990
2 40907  97.4664 216.9011 0015414  41.1349   0.6416 15.15895958214016
LILACSAT-2              
1 40908U 15049K   19215.86287748  .00000429  00000-0  27281-4 0  9997
2 40908  97.4794 215.6504 0017189  46.7558  37.7983 15.13821659213797
XW-2F                   
1 40910U 15049M   19215.83603625  .00000427  00000-0  24725-4 0  9991
2 40910  97.4620 218.8829 0015803  34.0356  50.9659 15.17342623214016
XW-2B                   
1 40911U 15049N   19216.07656602  .00000325  00000-0  20433-4 0  9991
2 40911  97.4674 217.7211 0015293  41.1168 359.8018 15.15824441213933
KAITUO 1B               
1 40912U 15049P   19215.98911841  .00000698  00000-0  35896-4 0  9992
2 40912  97.4497 222.7416 0015554  17.2038  38.9607 15.19662310214344
TIANWANG 1C (TW-1C)     
1 40926U 15051B   19215.82323336  .00007385  00000-0  10591-3 0  9993
2 40926  97.1324 261.9509 0007699 187.2647 261.5065 15.56409888217332
TIANWANG 1A (TW-1A)     
1 40928U 15051D   19216.05030933  .00001770  00000-0  44923-4 0  9998
2 40928  97.1430 246.3264 0009370 265.3021 151.9848 15.40961256216312
LAPAN-A2                
1 40931U 15052B   19215.07574832  .00000640  00000-0  41238-7 0  9999
2 40931   5.9990  92.8905 0012958  75.9377 284.2056 14.76610632207986
E-ST@R-II               
1 41459U 16025D   19216.19719672  .00001713  00000-0  91320-4 0  9999
2 41459  98.1021 305.0429 0167516 201.8622 157.5424 15.05514752179545
AAUSAT 4                
1 41460U 16025E   19215.78284581  .00002179  00000-0  11252-3 0  9993
2 41460  98.0976 305.9637 0157461 195.3821 164.2586 15.07426088179619
NUSAT-1 (FRESCO)        
1 41557U 16033B   19215.90793484  .00000794  00000-0  32393-4 0  9991
2 41557  97.4179 303.1407 0015143 130.4521 229.8041 15.27279778177140
BEESAT-4                
1 41619U 16040W   19215.89580969  .00000784  00000-0  36055-4 0  9996
2 41619  97.3645 277.2532 0010320 213.7830 146.2751 15.23198458160891
CAS-2T & KS-1Q          
1 41847U 16066G   19215.74264849  .00000020  00000-0  12721-4 0  9994
2 41847  98.7023 257.1965 0367061  97.9453 266.3551 14.37997266143617
NAYIF-1 (EO-88)         
1 42017U 17008BX  19215.87404698  .00000868  00000-0  36970-4 0  9995
2 42017  97.4005 282.4876 0006601  22.3663 337.7862 15.25607753136965
MAX VALIER SAT          
1 42778U 17036P   19215.74638411  .00000575  00000-0  28109-4 0  9998
2 42778  97.3512 272.3913 0013982  66.6309 293.6396 15.22066810117241
RADFXSAT (FOX-1B)       
1 43017U 17073E   19215.75232400  .00000530  00000-0  46810-4 0  9995
2 43017  97.7216 135.3084 0258486   8.7960 351.7653 14.78587507 92065
FOX-1D (AO-92)          
1 43137U 18004AC  19215.86881653  .00000603  00000-0  28246-4 0  9999
2 43137  97.4849 283.5632 0011021  94.3855 265.8641 15.23515641 86536
ES'HAIL 2               
1 43700U 18090A   19215.90673572  .00000126  00000-0  00000-0 0  9998
2 43700   0.0233  97.0912 0001452  44.8313 162.4821  1.00269011  2519
FOX-1CLIFF (AO-95)      
1 43770U 18099N   19215.89218324  .00000368  00000-0  39099-4 0  9994
2 43770  97.7432 287.1669 0014802 173.8695 186.2709 14.94786551 36325
ITASAT 1                
1 43786U 18099AE  19215.76367216  .00000180  00000-0  21669-4 0  9998
2 43786  97.7448 287.2271 0015531 168.8335 191.3234 14.95155451 36313
JY1SAT (JO-97)          
1 43803U 18099AX  19216.14588257  .00000629  00000-0  62212-4 0  9998
2 43803  97.7404 287.5129 0015641 168.3552 191.8034 14.95288058 36366
PSAT2                   
1 44354U 19036R   19215.58678144  .00008110  00000-0  12375-3 0  9991
2 44354  28.5319 305.2996 0387828 160.8353 200.7274 14.97470398  5881
BRICSAT2 (USNAP1)       
1 44355U 19036S   19215.58477693  .00014166  00000-0  22080-3 0  9990
2 44355  28.5324 305.2861 0386414 160.8852 200.6681 14.97739414  5881
JAISAT-1                
1 44419U 19038F   19215.94375726  .00000345  00000-0  23586-4 0  9994
2 44419  97.4920 177.3427 0022743 144.9388 215.3345 15.12260842  4458
CAS-7B                  
1 44443U 19043A   19216.18922696  .01783991  25765-2  16393-2 0  9997
2 44443  42.7271 305.0843 0012769 353.3096  88.7036 16.11913306  1601
